ATLAS CENTAUR 2         
1 00694U 63047A   24279.19432401  .00005026  00000+0  61904-3 0  9992
2 00694  30.3547 217.9129 0561291 183.4766 176.1822 14.08667236 57690
SL-8 R/B                
1 02802U 67045B   24278.86632657  .00003151  00000+0  88919-3 0  9997
2 02802  74.0116 240.3148 0064880  11.8695 348.3972 14.44907690 13779
OAO 2                   
1 03597U 68110A   24279.12449695  .00001890  00000+0  52023-3 0  9996
2 03597  34.9935 290.6513 0005700 338.5240  21.5210 14.46754271944135
SERT 2                  
1 04327U 70009A   24278.92747876  .00000157  00000+0  27024-3 0  9995
2 04327  99.2012 241.3840 0005744  60.2512   6.1327 13.58645961709170
SL-3 R/B                
1 05118U 71028B   24278.83427974  .00033099  00000+0  10264-2 0  9998
2 05118  81.2474 320.1101 0030907 311.6433  48.2158 15.32776760908213
ATLAS CENTAUR R/B       
1 06155U 72065B   24277.59083779  .00006720  00000+0  97057-3 0  9992
2 06155  35.0008 120.5903 0036110 302.1777  57.5423 14.75184110784954
SL-3 R/B                
1 10114U 77057B   24277.65175255  .00021559  00000+0  72133-3 0  9991
2 10114  97.5245  63.0854 0009764   2.0585 358.0694 15.30949605588067
SEASAT 1                
1 10967U 78064A   24279.12334601  .00002402  00000+0  72181-3 0  9991
2 10967 108.0046 114.0172 0002139 247.5438 112.5481 14.45266563431583
SL-14 R/B               
1 11267U 79011B   24278.88759739  .00004081  00000+0  41199-3 0  9993
2 11267  82.5247 230.2789 0016331   3.0631 357.0685 14.90759628472351
SL-14 R/B               
1 11672U 80005B   24279.02822441  .00003649  00000+0  37710-3 0  9999
2 11672  82.5121  80.7145 0017549  98.0190 262.3020 14.89778314420043
SL-8 R/B                
1 12139U 81003B   24278.83894427  .00050158  00000+0  17419-2 0  9998
2 12139  82.9405  43.6351 0348553 160.2147 201.2996 14.87339332236628
SL-3 R/B                
1 12465U 81046B   24279.14775121  .00027168  00000+0  98569-3 0  9992
2 12465  81.2403 188.1634 0026883  21.7735 338.4636 15.27845014371642
METEOR PRIRODA          
1 12585U 81065A   24278.63509760  .00046107  00000+0  96074-3 0  9996
2 12585  97.5343 311.5076 0009863  49.3950 310.8155 15.45396522362784
SL-3 R/B                
1 12904U 81103B   24277.58787672  .00012114  00000+0  66194-3 0  9998
2 12904  81.1592 102.7000 0018759 254.2509 105.6650 15.14051242894022
SL-3 R/B                
1 13068U 82013B   24278.82369102  .00015825  00000+0  82874-3 0  9998
2 13068  81.1788  48.5541 0025324 129.7180 230.6286 15.15424939325273
SL-3 R/B                
1 13154U 82039B   24277.60949204  .00010023  00000+0  69239-3 0  9999
2 13154  81.1775  94.7668 0034171 235.3554 124.4446 15.05168085303222
SL-3 R/B                
1 13403U 82079B   24277.54670699  .00015870  00000+0  80634-3 0  9999
2 13403  81.1470  86.1128 0029360 123.2354 237.1695 15.16388187298549
COSMOS 1408             
1 13552U 82092A   24279.14624970  .00396015  60717-4  10233-2 0  9994
2 13552  82.5408 124.0609 0004616 268.6207  91.4540 15.95078906306029
SL-14 R/B               
1 13553U 82092B   24279.09774214  .00002903  00000+0  33081-3 0  9997
2 13553  82.5646 268.0876 0019546 223.8375 203.5749 14.85718600272687
SL-3 R/B                
1 13819U 83010B   24278.76092500  .00025443  00000+0  86532-3 0  9990
2 13819  81.1061 273.1260 0023851  54.1826 306.1621 15.30030259277853
COSMOS 1455             
1 14032U 83037A   24279.15703097  .00058050  00000+0  12377-2 0  9996
2 14032  82.5032 314.6536 0007490 311.4150  48.6454 15.44642062266925
