OBJECT_NAME,OBJECT_ID,EPOCH,MEAN_MOTION,ECCENTRICITY,INCLINATION,RA_OF_ASC_NODE,ARG_OF_PERICENTER,MEAN_ANOMALY,EPHEMERIS_TYPE,CLASSIFICATION_TYPE,NORAD_CAT_ID,ELEMENT_SET_NO,REV_AT_EPOCH,BSTAR,MEAN_MOTION_DOT,MEAN_MOTION_DDOT
ATLAS CENTAUR 2,1963-047A,2024-10-05T04:39:49.594464,14.08667236,0.0561291,30.3547,217.9129,183.4766,176.1822,0,U,694,999,5769,6.19E-04,5.03E-05,0
SL-8 R/B,1967-045B,2024-10-04T20:47:30.615648,14.4490769,0.006488,74.0116,240.3148,11.8695,348.3972,0,U,2802,999,1377,8.89E-04,3.15E-05,0
OAO 2,1968-110A,2024-10-05T02:59:16.536480,14.46754271,0.00057,34.9935,290.6513,338.524,21.521,0,U,3597,999,94413,5.20E-04,1.89E-05,0
SERT 2,1970-009A,2024-10-04T22:15:34.164864,13.58645961,0.0005744,99.2012,241.384,60.2512,6.1327,0,U,4327,999,70917,2.70E-04,1.57E-06,0
SL-3 R/B,1971-028B,2024-10-04T20:01:21.769536,15.3277676,0.0030907,81.2474,320.1101,311.6433,48.2158,0,U,5118,999,90821,1.03E-03,3.31E-04,0
ATLAS CENTAUR R/B,1972-065B,2024-10-03T14:10:48.385056,14.7518411,0.003611,35.0008,120.5903,302.1777,57.5423,0,U,6155,999,78495,9.71E-04,6.72E-05,0
SL-3 R/B,1977-057B,2024-10-03T15:38:31.420320,15.30949605,0.0009764,97.5245,63.0854,2.0585,358.0694,0,U,10114,999,58806,7.21E-04,2.16E-04,0
SEASAT 1,1978-064A,2024-10-05T02:57:37.095264,14.45266563,0.0002139,108.0046,114.0172,247.5438,112.5481,0,U,10967,999,43158,7.22E-04,2.40E-05,0
SL-14 R/B,1979-011B,2024-10-04T21:18:08.414496,14.90759628,0.0016331,82.5247,230.2789,3.0631,357.0685,0,U,11267,999,47235,4.12E-04,4.08E-05,0
SL-14 R/B,1980-005B,2024-10-05T00:40:38.589024,14.89778314,0.0017549,82.5121,80.7145,98.019,262.302,0,U,11672,999,42004,3.77E-04,3.65E-05,0
SL-8 R/B,1981-003B,2024-10-04T20:08:04.784928,14.87339332,0.0348553,82.9405,43.6351,160.2147,201.2996,0,U,12139,999,23662,1.74E-03,5.02E-04,0
SL-3 R/B,1981-046B,2024-10-05T03:32:45.704544,15.27845014,0.0026883,81.2403,188.1634,21.7735,338.4636,0,U,12465,999,37164,9.86E-04,2.72E-04,0
METEOR PRIRODA,1981-065A,2024-10-04T15:14:32.432640,15.45396522,0.0009863,97.5343,311.5076,49.395,310.8155,0,U,12585,999,36278,9.61E-04,4.61E-04,0
SL-3 R/B,1981-103B,2024-10-03T14:06:32.548608,15.14051242,0.0018759,81.1592,102.7,254.2509,105.665,0,U,12904,999,89402,6.62E-04,1.21E-04,0
SL-3 R/B,1982-013B,2024-10-04T19:46:06.904128,15.15424939,0.0025324,81.1788,48.5541,129.718,230.6286,0,U,13068,999,32527,8.29E-04,1.58E-04,0
SL-3 R/B,1982-039B,2024-10-03T14:37:40.112256,15.05168085,0.0034171,81.1775,94.7668,235.3554,124.4446,0,U,13154,999,30322,6.92E-04,1.00E-04,0
SL-3 R/B,1982-079B,2024-10-03T13:07:15.483936,15.16388187,0.002936,81.147,86.1128,123.2354,237.1695,0,U,13403,999,29854,8.06E-04,1.59E-04,0
COSMOS 1408,1982-092A,2024-10-05T03:30:35.974080,15.95078906,0.0004616,82.5408,124.0609,268.6207,91.454,0,U,13552,999,30602,1.02E-03,3.96E-03,6.07E-05
SL-14 R/B,1982-092B,2024-10-05T02:20:44.920896,14.857186,0.0019546,82.5646,268.0876,223.8375,203.5749,0,U,13553,999,27268,3.31E-04,2.90E-05,0
SL-3 R/B,1983-010B,2024-10-04T18:15:43.920000,15.30030259,0.0023851,81.1061,273.126,54.1826,306.1621,0,U,13819,999,27785,8.65E-04,2.54E-04,0
COSMOS 1455,1983-037A,2024-10-05T03:46:07.475808,15.44642062,0.000749,82.5032,314.6536,311.415,48.6454,0,U,14032,999,26692,1.24E-03,5.81E-04,0
